{
    "links": {
        "self": "http://www.neowsapp.com/rest/v1/neo/3824992?api_key=iIulBulltgU6a56xZRHN4H3l9WmuAYTsLGpBGhQ2"
    },
    "id": "3824992",
    "neo_reference_id": "3824992",
    "name": "(2018 KE1)",
    "designation": "2018 KE1",
    "nasa_jpl_url": "http://ssd.jpl.nasa.gov/sbdb.cgi?sstr=3824992",
    "absolute_magnitude_h": 25.1,
    "estimated_diameter": {
        "kilometers": {
            "estimated_diameter_min": 0.0253837029,
            "estimated_diameter_max": 0.0567596853
        },
        "meters": {
            "estimated_diameter_min": 25.3837029364,
            "estimated_diameter_max": 56.7596852866
        },
        "miles": {
            "estimated_diameter_min": 0.0157726969,
            "estimated_diameter_max": 0.0352688224
        },
        "feet": {
            "estimated_diameter_min": 83.279867942,
            "estimated_diameter_max": 186.2194458756
        }
    },
    "is_potentially_hazardous_asteroid": false,
    "close_approach_data": [
        {
            "close_approach_date": "2018-06-01",
            "close_approach_date_full": "2018-Jun-01 06:09",
            "epoch_date_close_approach": 1527833340000,
            "relative_velocity": {
                "kilometers_per_second": "16.2052266019",
                "kilometers_per_hour": "58338.8157669584",
                "miles_per_hour": "36249.4713858637"
            },
            "miss_distance": {
                "astronomical": "0.0276636729",
                "lunar": "10.7611687581",
                "kilometers": "4138426.542216723",
                "miles": "2571499.0113398574"
            },
            "orbiting_body": "Earth"
        },
        {
            "close_approach_date": "2088-09-16",
            "close_approach_date_full": "2088-Sep-16 16:27",
            "epoch_date_close_approach": 3746190420000,
            "relative_velocity": {
                "kilometers_per_second": "14.7974052334",
                "kilometers_per_hour": "53270.6588403332",
                "miles_per_hour": "33100.3157666504"
            },
            "miss_distance": {
                "astronomical": "0.0563393781",
                "lunar": "21.9160180809",
                "kilometers": "8428250.960884647",
                "miles": "5237072.3008242486"
            },
            "orbiting_body": "Mars"
        }
    ],
    "orbital_data": {
        "orbit_id": "3",
        "orbit_determination_date": "2018-05-24 06:24:39",
        "first_observation_date": "2018-05-18",
        "last_observation_date": "2018-05-24",
        "data_arc_in_days": 6,
        "observations_used": 26,
        "orbit_uncertainty": "9",
        "minimum_orbit_intersection": ".0258698",
        "jupiter_tisserand_invariant": "3.523",
        "epoch_osculation": "2458258.5",
        "eccentricity": ".6217181395515726",
        "semi_major_axis": "2.040734065198345",
        "inclination": "7.246226916386838",
        "ascending_node_longitude": "58.53552532250463",
        "orbital_period": "1064.824531654086",
        "perihelion_distance": ".7719726788637122",
        "perihelion_argument": "259.8263599600899",
        "aphelion_distance": "3.309495451532977",
        "perihelion_time": "2458315.765890762996",
        "mean_anomaly": "340.6393259529302",
        "mean_motion": ".3380838713781137",
        "equinox": "J2000",
        "orbit_class": {
            "orbit_class_type": "APO",
            "orbit_class_description": "Near-Earth asteroid orbits which cross the Earth’s orbit similar to that of 1862 Apollo",
            "orbit_class_range": "a (semi-major axis) > 1.0 AU; q (perihelion) < 1.017 AU"
        }
    },
    "is_sentry_object": false
}